     2.11           G: GLONASS NAV DATA                     RINEX VERSION / TYPE
teqc  2019Feb25                         20220928 23:19:03UTCPGM / RUN BY / DATE
Linux2.6.32-573.12.1.el6.x86_64|x86_64|gcc|Win64-MinGW64|=+ COMMENT
                                                            END OF HEADER
 2 22  7 15  8 45  0.0 5.241595208645D-04 9.094947017729D-13 3.117000000000D+04
   -6.152386230469D+03-1.627110481262D+00 2.793967723846D-09 0.000000000000D+00
    1.013079736328D+04-2.624255180359D+00 3.725290298462D-09-4.000000000000D+00
    2.263799121094D+04 7.278871536255D-01-9.313225746155D-10 0.000000000000D+00
 3 22  7 15  8 45  0.0 6.025657057762D-05 9.094947017729D-13 3.117000000000D+04
    6.406233398438D+03-8.347167968750D-01 1.862645149231D-09 0.000000000000D+00
    2.110395458984D+04-1.553451538086D+00 5.587935447693D-09 5.000000000000D+00
    1.290946923828D+04 2.958852767944D+00 9.313225746155D-10 0.000000000000D+00
 9 22  7 15  8 45  0.0 6.587989628315D-05 1.818989403546D-12 3.117000000000D+04
    1.869806250000D+04 2.030031204224D+00-9.313225746155D-10 0.000000000000D+00
   -8.790477050781D+03-2.276153564453D-01 2.793967723846D-09-2.000000000000D+00
    1.492592626953D+04-2.688035964966D+00-9.313225746155D-10 0.000000000000D+00
10 22  7 15  8 45  0.0-8.418411016464D-05-0.000000000000D+00 3.123000000000D+04
    3.208809570313D+03 3.101514816284D+00-0.000000000000D+00 0.000000000000D+00
   -1.114363476563D+04-2.372531890869D-01 1.862645149231D-09-7.000000000000D+00
    2.272371582031D+04-5.478763580322D-01-2.793967723846D-09 0.000000000000D+00
18 22  7 15  8 45  0.0 1.235594972968D-04 9.094947017729D-13 3.117000000000D+04
    3.911347167969D+03-1.284085273743D+00 1.862645149231D-09 1.000000000000D+00
    1.325340771484D+04 2.645965576172D+00 4.656612873077D-09-3.000000000000D+00
    2.145910546875D+04-1.396306991577D+00 0.000000000000D+00 0.000000000000D+00
19 22  7 15  8 45  0.0-1.963684335351D-04-9.094947017729D-13 3.117000000000D+04
    1.223164648438D+04-1.563776016235D+00 0.000000000000D+00 0.000000000000D+00
   -1.552231445313D+03 2.636271476746D+00 3.725290298462D-09 3.000000000000D+00
    2.232363183594D+04 1.038968086243D+00-9.313225746155D-10 0.000000000000D+00
 4 22  7 15  8 45  0.0 1.507317647338D-04 1.818989403546D-12 3.204000000000D+04
    1.508090527344D+04 4.408617019653D-01 9.313225746155D-10 0.000000000000D+00
    2.021794775391D+04 3.420553207397D-01 4.656612873077D-09 6.000000000000D+00
   -3.810451660156D+03 3.532604217529D+00 2.793967723846D-09 0.000000000000D+00
 4 22  7 15  9 15  0.0 1.507345587015D-04 1.818989403546D-12 3.240000000000D+04
    1.543220849609D+04-8.461856842041D-02 1.862645149231D-09 0.000000000000D+00
    2.015192041016D+04-3.918619155884D-01 4.656612873077D-09 6.000000000000D+00
    2.613392089844D+03 3.558665275574D+00 2.793967723846D-09 0.000000000000D+00
10 22  7 15  9 15  0.0-8.418504148722D-05-0.000000000000D+00 3.240000000000D+04
    8.550131835938D+03 2.786102294922D+00-0.000000000000D+00 0.000000000000D+00
   -1.194091748047D+04-6.303911209106D-01 1.862645149231D-09-7.000000000000D+00
    2.087266796875D+04-1.495326995850D+00-1.862645149231D-09 0.000000000000D+00
 3 22  7 15  9 15  0.0 6.025936454535D-05 9.094947017729D-13 3.240000000000D+04
    4.328958496094D+03-1.477169990540D+00 2.793967723846D-09 0.000000000000D+00
    1.795044873047D+04-1.904588699341D+00 4.656612873077D-09 5.000000000000D+00
    1.767072412109D+04 2.297323226929D+00 9.313225746155D-10 0.000000000000D+00
19 22  7 15  9 15  0.0-1.963712275028D-04-9.094947017729D-13 3.240000000000D+04
    9.727501464844D+03-1.189892768860D+00 1.862645149231D-09 0.000000000000D+00
    3.533761230469D+03 2.969810485840D+00 4.656612873077D-09 3.000000000000D+00
    2.330613134766D+04 4.558086395264D-02-0.000000000000D+00 0.000000000000D+00
 9 22  7 15  9 15  0.0 6.587989628315D-05 1.818989403546D-12 3.240000000000D+04
    2.168173242188D+04 1.262445449829D+00-9.313225746155D-10 0.000000000000D+00
   -9.349865234375D+03-3.569898605347D-01 2.793967723846D-09-2.000000000000D+00
    9.571548828125D+03-3.222646713257D+00-0.000000000000D+00 0.000000000000D+00
 2 22  7 15  9 15  0.0 5.241623148322D-04 9.094947017729D-13 3.240000000000D+04
   -9.472257812500D+03-2.033259391785D+00 2.793967723846D-09 0.000000000000D+00
    5.568784667969D+03-2.401399612427D+00 1.862645149231D-09-4.000000000000D+00
    2.306070605469D+04-2.614002227783D-01-1.862645149231D-09 0.000000000000D+00
20 22  7 15  9 15  0.0-7.462408393621D-05-9.094947017729D-13 3.372000000000D+04
    1.337712890625D+04-9.145517349243D-01-1.862645149231D-09 0.000000000000D+00
   -1.639434423828D+04 1.736347198486D+00 9.313225746155D-10 2.000000000000D+00
    1.421846875000D+04 2.865665435791D+00-1.862645149231D-09 0.000000000000D+00
 4 22  7 15  9 45  0.0 1.507373526692D-04 1.818989403546D-12 3.420000000000D+04
    1.467742089844D+04-7.738094329834D-01 2.793967723846D-09 0.000000000000D+00
    1.891880664063D+04-9.409790039063D-01 4.656612873077D-09 6.000000000000D+00
    8.835409179688D+03 3.309882164001D+00 1.862645149231D-09 0.000000000000D+00
 2 22  7 15  9 45  0.0 5.241613835096D-04 9.094947017729D-13 3.420000000000D+04
   -1.334461328125D+04-2.227983474731D+00 1.862645149231D-09 0.000000000000D+00
    1.620717773438D+03-1.954749107361D+00 0.000000000000D+00-4.000000000000D+00
    2.170836035156D+04-1.231707572937D+00-2.793967723846D-09 0.000000000000D+00
 3 22  7 15  9 45  0.0 6.026122719049D-05 9.094947017729D-13 3.420000000000D+04
    1.108352050781D+03-2.086438179016D+00 3.725290298462D-09 0.000000000000D+00
    1.441636572266D+04-1.975716590881D+00 3.725290298462D-09 5.000000000000D+00
    2.107369628906D+04 1.459347724915D+00-0.000000000000D+00 0.000000000000D+00
19 22  7 15  9 45  0.0-1.963740214705D-04-9.094947017729D-13 3.420000000000D+04
    8.021166992188D+03-6.947469711304D-01 2.793967723846D-09 0.000000000000D+00
    8.961223144531D+03 3.008427619934D+00 3.725290298462D-09 3.000000000000D+00
    2.248551562500D+04-9.514732360840D-01-0.000000000000D+00 0.000000000000D+00
10 22  7 15  9 45  0.0-8.418504148722D-05-0.000000000000D+00 3.420000000000D+04
    1.308706054688D+04 2.219083786011D+00-0.000000000000D+00 0.000000000000D+00
   -1.332004150391D+04-8.694391250610D-01 2.793967723846D-09-7.000000000000D+00
    1.741052734375D+04-2.326439857483D+00-9.313225746155D-10 0.000000000000D+00
 9 22  7 15  9 45  0.0 6.588269025087D-05 1.818989403546D-12 3.420000000000D+04
    2.319400878906D+04 4.138069152832D-01-9.313225746155D-10 0.000000000000D+00
   -9.933401855469D+03-2.507638931274D-01 2.793967723846D-09-2.000000000000D+00
    3.474534179688D+03-3.507689476013D+00 0.000000000000D+00 0.000000000000D+00
20 22  7 15  9 45  0.0-7.462594658136D-05-0.000000000000D+00 3.423000000000D+04
    1.181144238281D+04-7.845916748047D-01-0.000000000000D+00 0.000000000000D+00
   -1.259575781250D+04 2.457146644592D+00 2.793967723846D-09 2.000000000000D+00
    1.875934472656D+04 2.147004127502D+00-1.862645149231D-09 0.000000000000D+00
11 22  7 15  9 45  0.0 3.323797136545D-05-9.094947017729D-13 3.432000000000D+04
   -5.810899902344D+03 2.975076675415D+00 0.000000000000D+00 0.000000000000D+00
   -9.509180664063D+03-1.003859519958D+00 9.313225746155D-10 0.000000000000D+00
    2.295961328125D+04 3.358392715454D-01-2.793967723846D-09 0.000000000000D+00
 5 22  7 15  9 45  0.0 9.626336395741D-05 9.094947017729D-13 3.558000000000D+04
    2.019019287109D+04 9.599561691284D-01 9.313225746155D-10 0.000000000000D+00
    1.321356787109D+04 6.359863281250D-01 3.725290298462D-09 1.000000000000D+00
   -8.295645996094D+03 3.342553138733D+00 2.793967723846D-09 0.000000000000D+00
10 22  7 15 10 15  0.0-8.418504148722D-05 0.000000000000D+00 3.600000000000D+04
    1.643806445313D+04 1.484904289246D+00-0.000000000000D+00 0.000000000000D+00
   -1.493581542969D+04-8.846712112427D-01 2.793967723846D-09-7.000000000000D+00
    1.260578662109D+04-2.977521896362D+00-0.000000000000D+00 0.000000000000D+00
 4 22  7 15 10 15  0.0 1.507401466370D-04 1.818989403546D-12 3.600000000000D+04
    1.260723144531D+04-1.527934074402D+00 3.725290298462D-09 0.000000000000D+00
    1.691413232422D+04-1.242003440857D+00 3.725290298462D-09 6.000000000000D+00
    1.437543896484D+04 2.805873870850D+00 9.313225746155D-10 0.000000000000D+00
 3 22  7 15 10 15  0.0 6.026122719049D-05 9.094947017729D-13 3.600000000000D+04
   -3.097108886719D+03-2.554494857788D+00 3.725290298462D-09 0.000000000000D+00
    1.099528662109D+04-1.785894393921D+00 1.862645149231D-09 5.000000000000D+00
    2.285675341797D+04 5.089578628540D-01-9.313225746155D-10 0.000000000000D+00
20 22  7 15 10 15  0.0-7.462687790394D-05-0.000000000000D+00 3.600000000000D+04
    1.067954101563D+04-4.443025588989D-01 9.313225746155D-10 0.000000000000D+00
   -7.676201171875D+03 2.966356277466D+00 3.725290298462D-09 2.000000000000D+00
    2.184799169922D+04 1.262612342834D+00-9.313225746155D-10 0.000000000000D+00
19 22  7 15 10 15  0.0-1.963796094060D-04-9.094947017729D-13 3.600000000000D+04
    7.232856445313D+03-1.888427734375D-01 3.725290298462D-09 0.000000000000D+00
    1.417426367188D+04 2.732293128967D+00 3.725290298462D-09 3.000000000000D+00
    1.992504541016D+04-1.875020980835D+00 0.000000000000D+00 0.000000000000D+00
 9 22  7 15 10 15  0.0 6.588548421860D-05 1.818989403546D-12 3.600000000000D+04
    2.319142041016D+04-4.017829895020D-01-9.313225746155D-10 0.000000000000D+00
   -1.011050488281D+04 9.083080291748D-02 2.793967723846D-09-2.000000000000D+00
   -2.892302246094D+03-3.520405769348D+00 9.313225746155D-10 0.000000000000D+00
11 22  7 15 10 15  0.0 3.323610872030D-05-9.094947017729D-13 3.600000000000D+04
   -6.050883789063D+02 2.762182235718D+00 0.000000000000D+00 0.000000000000D+00
   -1.170023437500D+04-1.408985137939D+00 1.862645149231D-09 0.000000000000D+00
    2.267020166016D+04-6.553754806519D-01-2.793967723846D-09 0.000000000000D+00
